ICEYE-X2                
1 43800U 18099AU  26200.31161499  .00001867  00000+0  94848-4 0  9994
2 43800  97.4330 253.5909 0010325 180.5737 179.5487 15.18064880417697
ICEYE-X4                
1 44390U 19038D   26200.25203428  .00006139  00000+0  21423-3 0  9990
2 44390  97.8745 235.0635 0013301 183.7321 176.3822 15.29932906386708
ICEYE-X7                
1 46496U 20068L   26200.28002280  .00006258  00000+0  20425-3 0  9993
2 46496  97.7515 168.2834 0006465 196.3783 163.7250 15.32147567319700
ICEYE-X6                
1 46497U 20068M   26200.24611385  .00001172  00000+0  88142-4 0  9993
2 46497  98.0993 195.4560 0006867 358.6589   1.4617 15.04678865318057
ICEYE-X21               
1 55049U 23001AS  26175.21618542  .01585954  23968-5  60214-3 0  9995
2 55049  97.3001 262.6152 0012377 285.9702  74.0225 16.24069885194757
ICEYE-X25               
1 56963U 23084AH  26200.28611861  .00017376  00000+0  19286-3 0  9991
2 56963  97.5920 348.8229 0004562 172.3091 187.8237 15.62994530172986
ICEYE-X31               
1 58288U 23174AJ  26200.27862145  .00009005  00000+0  26538-3 0  9993
2 58288  97.3763 276.0302 0003141 174.7254 185.4023 15.35253951149676
ICEYE-X34               
1 58294U 23174AQ  26200.20471004  .00106848  00000+0  80474-3 0  9995
2 58294  97.3848 293.1035 0002132 219.6740 140.4367 15.72193709150767
ICEYE-X35               
1 58302U 23174AY  26200.30829576  .00033181  00000+0  48663-3 0  9990
2 58302  97.3776 285.8376 0007389  94.3953 265.8146 15.55443897150333
ICEYE-X38               
1 59100U 24043C   26200.25941395  .00002117  00000+0  12352-3 0  9992
2 59100  97.8445 344.9010 0001991   8.7789 351.3476 15.13111073116521
ICEYE-X37               
1 59102U 24043E   26200.13481425  .00002179  00000+0  15248-3 0  9999
2 59102  97.8348 337.6481 0013916 259.5280 100.4379 15.06306736129891
ICEYE-X36               
1 59103U 24043F   26200.18614180  .00002009  00000+0  13764-3 0  9994
2 59103  97.8413 338.8390 0005594 197.6675 162.4358 15.07252628129964
ICEYE-X43               
1 60539U 24149BZ  26200.18794822  .00000563  00000+0  50325-4 0  9996
2 60539  97.6786 276.7232 0006369 329.7207  30.3648 14.99791881104917
ICEYE-X39               
1 60546U 24149CG  26200.16372423  .00002195  00000+0  18083-3 0  9998
2 60546  97.6797 276.7581 0006818  35.4467 324.7208 15.00090843104917
ICEYE-X33               
1 60548U 24149CJ  26200.23661159  .00002507  00000+0  20161-3 0  9992
2 60548  97.7374 279.2190 0001852  70.3156 289.8267 15.00905522105018
