{"fetched_at":"2026-07-19T17:31:37.739Z","source":"https://celestrak.org/NORAD/elements/gp.php?NAME=ICEYE&FORMAT=JSON","constellation":"iceye","records":[{"OBJECT_NAME":"ICEYE-X2","OBJECT_ID":"2018-099AU","EPOCH":"2026-07-19T07:28:43.535136","CLASSIFICATION_TYPE":"U","MEAN_MOTION":15.1806488,"ECCENTRICITY":0.0010325,"INCLINATION":97.433,"RA_OF_ASC_NODE":253.5909,"ARG_OF_PERICENTER":180.5737,"MEAN_ANOMALY":179.5487,"EPHEMERIS_TYPE":0,"NORAD_CAT_ID":43800,"ELEMENT_SET_NO":999,"REV_AT_EPOCH":41769,"BSTAR":0.000094847783,"MEAN_MOTION_DOT":0.00001867,"MEAN_MOTION_DDOT":0},{"OBJECT_NAME":"ICEYE-X4","OBJECT_ID":"2019-038D","EPOCH":"2026-07-19T06:02:55.761792","CLASSIFICATION_TYPE":"U","MEAN_MOTION":15.29932906,"ECCENTRICITY":0.00133019,"INCLINATION":97.8745,"RA_OF_ASC_NODE":235.0635,"ARG_OF_PERICENTER":183.7321,"MEAN_ANOMALY":176.3822,"EPHEMERIS_TYPE":0,"NORAD_CAT_ID":44390,"ELEMENT_SET_NO":999,"REV_AT_EPOCH":38670,"BSTAR":0.00021422534,"MEAN_MOTION_DOT":0.00006139,"MEAN_MOTION_DDOT":0},{"OBJECT_NAME":"ICEYE-X7","OBJECT_ID":"2020-068L","EPOCH":"2026-07-19T06:43:13.969920","CLASSIFICATION_TYPE":"U","MEAN_MOTION":15.32147567,"ECCENTRICITY":0.00064653,"INCLINATION":97.7515,"RA_OF_ASC_NODE":168.2834,"ARG_OF_PERICENTER":196.3783,"MEAN_ANOMALY":163.725,"EPHEMERIS_TYPE":0,"NORAD_CAT_ID":46496,"ELEMENT_SET_NO":999,"REV_AT_EPOCH":31970,"BSTAR":0.00020424522,"MEAN_MOTION_DOT":0.00006258,"MEAN_MOTION_DDOT":0},{"OBJECT_NAME":"ICEYE-X6","OBJECT_ID":"2020-068M","EPOCH":"2026-07-19T05:54:24.236640","CLASSIFICATION_TYPE":"U","MEAN_MOTION":15.04678865,"ECCENTRICITY":0.00068671,"INCLINATION":98.0993,"RA_OF_ASC_NODE":195.456,"ARG_OF_PERICENTER":358.6589,"MEAN_ANOMALY":1.4617,"EPHEMERIS_TYPE":0,"NORAD_CAT_ID":46497,"ELEMENT_SET_NO":999,"REV_AT_EPOCH":31805,"BSTAR":0.00008814234,"MEAN_MOTION_DOT":0.00001172,"MEAN_MOTION_DDOT":0},{"OBJECT_NAME":"ICEYE-X21","OBJECT_ID":"2023-001AS","EPOCH":"2026-06-24T05:11:18.420288","CLASSIFICATION_TYPE":"U","MEAN_MOTION":16.24069885,"ECCENTRICITY":0.00123774,"INCLINATION":97.3001,"RA_OF_ASC_NODE":262.6152,"ARG_OF_PERICENTER":285.9702,"MEAN_ANOMALY":74.0225,"EPHEMERIS_TYPE":0,"NORAD_CAT_ID":55049,"ELEMENT_SET_NO":999,"REV_AT_EPOCH":19475,"BSTAR":0.000602142,"MEAN_MOTION_DOT":0.01585954,"MEAN_MOTION_DDOT":0.000002396838},{"OBJECT_NAME":"ICEYE-X25","OBJECT_ID":"2023-084AH","EPOCH":"2026-07-19T06:52:00.647904","CLASSIFICATION_TYPE":"U","MEAN_MOTION":15.6299453,"ECCENTRICITY":0.00045627,"INCLINATION":97.592,"RA_OF_ASC_NODE":348.8229,"ARG_OF_PERICENTER":172.3091,"MEAN_ANOMALY":187.8237,"EPHEMERIS_TYPE":0,"NORAD_CAT_ID":56963,"ELEMENT_SET_NO":999,"REV_AT_EPOCH":17298,"BSTAR":0.00019286424,"MEAN_MOTION_DOT":0.00017376,"MEAN_MOTION_DDOT":0},{"OBJECT_NAME":"ICEYE-X31","OBJECT_ID":"2023-174AJ","EPOCH":"2026-07-19T06:41:12.893280","CLASSIFICATION_TYPE":"U","MEAN_MOTION":15.35253951,"ECCENTRICITY":0.00031415,"INCLINATION":97.3763,"RA_OF_ASC_NODE":276.0302,"ARG_OF_PERICENTER":174.7254,"MEAN_ANOMALY":185.4023,"EPHEMERIS_TYPE":0,"NORAD_CAT_ID":58288,"ELEMENT_SET_NO":999,"REV_AT_EPOCH":14967,"BSTAR":0.00026537848,"MEAN_MOTION_DOT":0.00009005,"MEAN_MOTION_DDOT":0},{"OBJECT_NAME":"ICEYE-X34","OBJECT_ID":"2023-174AQ","EPOCH":"2026-07-19T04:54:46.947456","CLASSIFICATION_TYPE":"U","MEAN_MOTION":15.72193709,"ECCENTRICITY":0.00021328,"INCLINATION":97.3848,"RA_OF_ASC_NODE":293.1035,"ARG_OF_PERICENTER":219.674,"MEAN_ANOMALY":140.4367,"EPHEMERIS_TYPE":0,"NORAD_CAT_ID":58294,"ELEMENT_SET_NO":999,"REV_AT_EPOCH":15076,"BSTAR":0.00080473782,"MEAN_MOTION_DOT":0.00106848,"MEAN_MOTION_DDOT":0},{"OBJECT_NAME":"ICEYE-X35","OBJECT_ID":"2023-174AY","EPOCH":"2026-07-19T07:23:56.753664","CLASSIFICATION_TYPE":"U","MEAN_MOTION":15.55443897,"ECCENTRICITY":0.0007389,"INCLINATION":97.3776,"RA_OF_ASC_NODE":285.8376,"ARG_OF_PERICENTER":94.3953,"MEAN_ANOMALY":265.8146,"EPHEMERIS_TYPE":0,"NORAD_CAT_ID":58302,"ELEMENT_SET_NO":999,"REV_AT_EPOCH":15033,"BSTAR":0.00048663354,"MEAN_MOTION_DOT":0.00033181,"MEAN_MOTION_DDOT":0},{"OBJECT_NAME":"ICEYE-X38","OBJECT_ID":"2024-043C","EPOCH":"2026-07-19T06:13:33.365280","CLASSIFICATION_TYPE":"U","MEAN_MOTION":15.13111073,"ECCENTRICITY":0.00019912,"INCLINATION":97.8445,"RA_OF_ASC_NODE":344.901,"ARG_OF_PERICENTER":8.7789,"MEAN_ANOMALY":351.3476,"EPHEMERIS_TYPE":0,"NORAD_CAT_ID":59100,"ELEMENT_SET_NO":999,"REV_AT_EPOCH":11652,"BSTAR":0.00012352164,"MEAN_MOTION_DOT":0.00002117,"MEAN_MOTION_DDOT":0},{"OBJECT_NAME":"ICEYE-X37","OBJECT_ID":"2024-043E","EPOCH":"2026-07-19T03:14:07.951200","CLASSIFICATION_TYPE":"U","MEAN_MOTION":15.06306736,"ECCENTRICITY":0.00139162,"INCLINATION":97.8348,"RA_OF_ASC_NODE":337.6481,"ARG_OF_PERICENTER":259.528,"MEAN_ANOMALY":100.4379,"EPHEMERIS_TYPE":0,"NORAD_CAT_ID":59102,"ELEMENT_SET_NO":999,"REV_AT_EPOCH":12989,"BSTAR":0.000152478,"MEAN_MOTION_DOT":0.00002179,"MEAN_MOTION_DDOT":0},{"OBJECT_NAME":"ICEYE-X36","OBJECT_ID":"2024-043F","EPOCH":"2026-07-19T04:28:02.651520","CLASSIFICATION_TYPE":"U","MEAN_MOTION":15.07252628,"ECCENTRICITY":0.00055949,"INCLINATION":97.8413,"RA_OF_ASC_NODE":338.839,"ARG_OF_PERICENTER":197.6675,"MEAN_ANOMALY":162.4358,"EPHEMERIS_TYPE":0,"NORAD_CAT_ID":59103,"ELEMENT_SET_NO":999,"REV_AT_EPOCH":12996,"BSTAR":0.00013764458,"MEAN_MOTION_DOT":0.00002009,"MEAN_MOTION_DDOT":0},{"OBJECT_NAME":"ICEYE-X43","OBJECT_ID":"2024-149BZ","EPOCH":"2026-07-19T04:30:38.726208","CLASSIFICATION_TYPE":"U","MEAN_MOTION":14.99791881,"ECCENTRICITY":0.00063698,"INCLINATION":97.6786,"RA_OF_ASC_NODE":276.7232,"ARG_OF_PERICENTER":329.7207,"MEAN_ANOMALY":30.3648,"EPHEMERIS_TYPE":0,"NORAD_CAT_ID":60539,"ELEMENT_SET_NO":999,"REV_AT_EPOCH":10491,"BSTAR":0.000050324859,"MEAN_MOTION_DOT":0.00000563,"MEAN_MOTION_DDOT":0},{"OBJECT_NAME":"ICEYE-X39","OBJECT_ID":"2024-149CG","EPOCH":"2026-07-19T03:55:45.773472","CLASSIFICATION_TYPE":"U","MEAN_MOTION":15.00090843,"ECCENTRICITY":0.00068186,"INCLINATION":97.6797,"RA_OF_ASC_NODE":276.7581,"ARG_OF_PERICENTER":35.4467,"MEAN_ANOMALY":324.7208,"EPHEMERIS_TYPE":0,"NORAD_CAT_ID":60546,"ELEMENT_SET_NO":999,"REV_AT_EPOCH":10491,"BSTAR":0.00018083331,"MEAN_MOTION_DOT":0.00002195,"MEAN_MOTION_DDOT":0},{"OBJECT_NAME":"ICEYE-X33","OBJECT_ID":"2024-149CJ","EPOCH":"2026-07-19T05:40:43.241376","CLASSIFICATION_TYPE":"U","MEAN_MOTION":15.00905522,"ECCENTRICITY":0.00018526,"INCLINATION":97.7374,"RA_OF_ASC_NODE":279.219,"ARG_OF_PERICENTER":70.3156,"MEAN_ANOMALY":289.8267,"EPHEMERIS_TYPE":0,"NORAD_CAT_ID":60548,"ELEMENT_SET_NO":999,"REV_AT_EPOCH":10501,"BSTAR":0.00020160854,"MEAN_MOTION_DOT":0.00002507,"MEAN_MOTION_DDOT":0}]}
